[{"OBJECT_NAME":"TIANMU-1 22","OBJECT_ID":"2023-208D","EPOCH":"2026-03-09T22:39:05.738688","MEAN_MOTION":15.29457749,"ECCENTRICITY":0.00031332,"INCLINATION":97.4379,"RA_OF_ASC_NODE":184.9419,"ARG_OF_PERICENTER":351.9312,"MEAN_ANOMALY":8.1877,"EPHEMERIS_TYPE":0,"CLASSIFICATION_TYPE":"U","NORAD_CAT_ID":58663,"ELEMENT_SET_NO":999,"REV_AT_EPOCH":12215,"BSTAR":0.00038239675,"MEAN_MOTION_DOT":0.00010851,"MEAN_MOTION_DDOT":0},{"OBJECT_NAME":"STARLINK-36516","OBJECT_ID":"2026-008L","EPOCH":"2026-03-09T10:08:17.691936","MEAN_MOTION":15.27594547,"ECCENTRICITY":0.00020063,"INCLINATION":42.9992,"RA_OF_ASC_NODE":206.5347,"ARG_OF_PERICENTER":299.4788,"MEAN_ANOMALY":60.5863,"EPHEMERIS_TYPE":0,"CLASSIFICATION_TYPE":"U","NORAD_CAT_ID":67455,"ELEMENT_SET_NO":999,"REV_AT_EPOCH":953,"BSTAR":0.00092263854,"MEAN_MOTION_DOT":0.00025226,"MEAN_MOTION_DDOT":0}]
